[Satellite]
VERSION=1.1
NAME=IRIDIUM 134 [+]
NICKNAME=IRIDIUM 134 [+]
TLE1=1 43075U 17083F   20157.74337860  .00000088  00000-0  24362-4 0  9998
TLE2=2 43075  86.3975 162.4469 0002081  82.5457 277.5975 14.34217716128428
STATUS=0
